C/2020 S4 (PANSTARRS),h,02/09.2977/2023,20.5725,117.7220,21.0016,1.000644,3.369589,2000,8.5,3.2
# From MPEC 2021-BE3
P/2020 S5 (PANSTARRS),e,12.3524,316.0023,53.1270,4.052090,0.1208330,0.33862055,79.2861,05/27.0/2022,2000,g 14.5,4.0
# From MPEC 2021-P47
P/2020 S6 (Leonard),e,15.4606,242.5468,176.6711,3.600053,0.1442915,0.47939651,79.2589,05/27.0/2022,2000,g 16.0,4.0
# From MPEC 2021-BE3
P/2020 S7 (PANSTARRS),e,16.0916,328.0209,40.4964,5.026932,0.0874479,0.41072747,48.4927,05/27.0/2022,2000,g 14.5,4.0
# From MPEC 2021-P47
C/2020 S8 (Lemmon),e,108.5261,24.0598,160.3236,273.9499,0.0002174,0.99137273,0.0000,04/10.9070/2021,2000,g 12.5,4.0
# From MPEC 2022-K19
C/2020 T2 (Palomar),e,27.8639,83.0270,150.4400,324.9391,0.0001683,0.99367424,0.0000,07/11.2119/2021,2000,g 11.0,3.2
# From MPEC 2021-N06
P/2020 T3 (PANSTARRS),e,7.2962,74.0026,357.0347,3.517270,0.1494155,0.59177261,73.4349,05/27.0/2022,2000,g 18.0,3.2
# From MPEC 2021-N06
C/2020 T4 (PANSTARRS),h,07/05.2602/2021,83.8206,50.6150,79.6104,1.000074,2.191893,2000,13.0,3.2
# From MPEC 2021-BE3
C/2020 T5 (Lemmon),e,66.5826,237.8565,90.3124,814.0891,0.0000424,0.99767870,0.0000,10/09.5778/2020,2000,g 16.0,4.0
# From MPEC 2021-N06
P/2020 U2 (PANSTARRS),e,6.4210,342.8988,84.6341,3.778011,0.1342175,0.51081782,69.4219,05/27.0/2022,2000,g 18.0,4.0
# From MPEC 2021-W31
C/2020 U3 (Rankin),e,30.1691,282.6724,124.2851,65.78404,0.0018472,0.96539783,0.8773,05/27.0/2022,2000,g 15.0,4.0
# From MPEC 2022-K19
C/2020 U4 (PANSTARRS),h,04/08.0422/2022,167.0359,120.0137,69.5404,1.001307,5.353691,2000,7.0,4.0
# From MPEC 2022-K19
C/2020 U5 (PANSTARRS),e,97.2699,107.3353,75.4191,4962,0.0000028,0.99924304,0.0000,04/27.8997/2022,2000,g  8.0,4.0
# From MPEC 2022-K19
C/2020 V2 (ZTF),h,05/08.5174/2023,131.6105,212.3673,162.4110,1.001091,2.228141,2000,4.9,4.0
# From MPEC 2021-N06
P/2020 V3 (PANSTARRS),e,23.0318,198.2574,249.3418,8.374444,0.0406696,0.25605585,19.2053,05/27.0/2022,2000,g  8.3,4.0
# From MPEC 2022-K19
P/2020 V4 (Rankin),e,14.2432,203.4910,256.9940,9.354700,0.0344476,0.44964075,10.7897,05/27.0/2022,2000,g  9.0,4.0
# From MPEC 2021-BE3
P/2020 W1 (Rankin),e,10.7906,124.2657,264.9576,7.206839,0.0509433,0.26604693,39.7628,05/27.0/2022,2000,g 10.0,4.0
# From MPEC 2021-BE3
C/2020 W5 (Lemmon),h,11/30.0591/2020,88.5845,75.4942,24.4803,1.000674,3.364372,2000,15.0,4.0
# From MPEC 2022-K19
P/2020 WJ5 (Lemmon),e,22.2942,177.8107,338.3260,6.017103,0.0667764,0.17125457,21.9430,05/27.0/2022,2000,g  8.5,4.0
# From MPEC 2021-P47
P/2020 X1 (ATLAS),e,31.6933,56.0109,323.3233,4.528132,0.1022882,0.36554891,69.0884,05/27.0/2022,2000,g 13.0,4.0
# From MPEC 2021-U31
C/2020 X2 (ATLAS),e,18.1875,105.4475,347.3401,16.41932,0.0148140,0.76687905,8.2539,05/27.0/2022,2000,g 10.6,4.0
# From MPEC 2021-S45
C/2020 X4 (Leonard),e,80.6187,161.8865,140.3035,41.39730,0.0037004,0.87391223,2.0590,05/27.0/2022,2000,g  9.0,4.0
# From MPEC 2022-K19
C/2020 Y2 (ATLAS),e,101.2977,26.5139,266.1024,1108,0.0000267,0.99717394,0.0000,06/17.6866/2022,2000,g  6.5,4.0
# From MPEC 2021-R75
C/2020 Y3 (ATLAS),e,83.1012,191.4386,342.0107,146.8225,0.0005540,0.98638849,0.0000,12/03.4126/2020,2000,g 13.5,4.0
# From MPEC 2022-H04
C/2021 A1 (Leonard),e,132.6858,255.8969,225.0915,36211,0.0000001,0.99998301,0.0000,01/03.2961/2022,2000,g  8.5,4.0
# From MPEC 2022-F14
C/2021 A2 (NEOWISE),e,106.9779,125.2302,338.8178,244.1953,0.0002583,0.99421575,0.0000,01/22.5740/2021,2000,g 13.5,4.0
# From MPEC 2022-ED3
C/2021 A4 (NEOWISE),e,111.5402,307.1090,204.7053,42.81938,0.0035176,0.97322231,0.0000,03/19.9640/2021,2000,g 16.0,4.0
# From MPEC 2021-BE3
P/2021 A5 (PANSTARRS),e,18.1873,328.7682,61.2262,3.047243,0.1852863,0.13985006,103.9343,05/27.0/2022,2000,g 15.0,4.0
# From MPEC 2022-K19
C/2021 A6 (PANSTARRS),e,75.6124,164.0794,351.6820,10336,0.0000009,0.99923292,0.0000,05/03.9710/2021,2000,g  7.0,4.0
# From MPEC 2022-GA9
C/2021 A7 (NEOWISE),e,78.1498,154.5178,356.0437,4124,0.0000037,0.99952291,0.0000,07/15.2805/2021,2000,g 10.0,4.0
# From MPEC 2022-K19
C/2021 A9 (PANSTARRS),h,12/01.3444/2023,158.0248,314.8433,211.4538,1.003556,7.760104,2000,6.0,4.0
# From MPEC 2021-N06
C/2021 A10 (NEOWISE),e,151.8742,188.6209,82.4797,95.87344,0.0010499,0.98679049,0.0000,03/15.4369/2021,2000,g 19.0,4.0
# From MPEC 2022-ED3
C/2021 B2 (PANSTARRS),e,38.0899,120.5503,334.9644,350.7151,0.0001501,0.99283561,0.0000,05/04.2681/2021,2000,g 14.0,4.0
# From MPEC 2021-N06
C/2021 B3 (NEOWISE),e,119.4820,67.2860,293.5518,34.78863,0.0048034,0.93790383,2.1238,05/27.0/2022,2000,g 13.5,4.0
# From MPEC 2022-ED3
C/2021 C1 (Rankin),e,143.0450,186.8982,336.2925,113408,0.0000000,0.99996931,0.0000,12/07.0890/2020,2000,g 11.5,4.0
# From MPEC 2021-U31
P/2021 C2 (PANSTARRS),e,21.9294,66.4749,78.7666,9.535087,0.0334747,0.48722118,15.2998,05/27.0/2022,2000,g 12.0,4.0
# From MPEC 2021-N06
C/2021 C3 (Catalina),e,122.1643,181.9273,357.1241,62.85555,0.0019778,0.96379430,0.9269,05/27.0/2022,2000,g 14.0,4.0
# From MPEC 2022-H30
C/2021 C4 (ATLAS),e,132.8515,194.2764,320.2304,36926,0.0000001,0.99987803,0.0000,01/17.1157/2021,2000,g  9.0,4.0
# From MPEC 2022-K19
C/2021 C5 (PANSTARRS),e,50.7840,323.6893,270.9190,3702,0.0000044,0.99912420,0.0000,02/11.0622/2023,2000,g  9.0,4.0
# From MPEC 2022-F14
C/2021 C6 (Lemmon),h,11/13.2889/2021,164.6258,332.1556,203.5552,1.001482,3.271149,2000,12.0,4.0
# From MPEC 2022-F14
C/2021 D1 (SWAN),e,31.4534,311.2667,72.2384,98.48156,0.0010085,0.99084274,0.0000,02/27.6569/2021,2000,g 13.0,4.0
# From MPEC 2022-K19
C/2021 D2 (ZTF),h,02/03.9819/2022,83.8294,305.6798,125.0293,1.001582,2.946304,2000,9.0,4.0
# From MPEC 2021-N06
A/2021 E2,e,167.4883,190.8212,342.4454,234.4142,0.0002746,0.99024279,0.0000,12/10.4660/2020,2000,g 15.0,2.0
# From MPEC 2022-K19
C/2021 E3 (ZTF),h,06/11.9092/2022,112.5547,104.4683,228.8491,1.000879,1.777381,2000,8.5,4.0
# From MPEC 2022-GA9
A/2021 E4,e,116.3616,171.1743,48.2751,674.0936,0.0000563,0.99306329,0.0000,04/25.3057/2022,2000,g 13.5,2.0
# From MPEC 2022-H30
C/2021 F1 (Lemmon-PANSTARRS),e,107.3250,203.4515,146.8227,237.7909,0.0002688,0.99581366,0.0000,04/06.8735/2022,2000,g 13.5,4.0
# From MPEC 2021-J72
C/2021 G1 (Leonard),e,131.5602,270.6989,107.4722,75.00321,0.0015173,0.95435593,0.4686,05/27.0/2022,2000,g 14.0,4.0
# From MPEC 2022-J42
C/2021 G2 (ATLAS),e,48.4725,221.1126,343.3658,3857,0.0000041,0.99870912,0.0000,09/10.0207/2024,2000,g  5.5,4.0
# From MPEC 2022-ED3
C/2021 G3 (PANSTARRS),h,10/18.6309/2021,102.8907,147.4215,10.6520,1.001629,5.181568,2000,10.5,4.0
# From MPEC 2021-Y10
P/2021 HS (PANSTARRS),e,12.1701,262.3907,46.0895,4.194372,0.1147370,0.81008109,33.6900,05/27.0/2022,2000,g 22.0,4.0
# From MPEC 2022-C56
C/2021 J1 (Maury-Attard),e,92.7198,88.3275,147.3333,26.43706,0.0072508,0.93414738,3.3466,05/27.0/2022,2000,g 15.5,4.0
# From MPEC 2022-K19
C/2021 J2 (PANSTARRS),e,156.2107,23.3307,172.0562,117.7793,0.0007711,0.96004001,0.1901,05/27.0/2022,2000,g 12.0,4.0
# From MPEC 2021-S45
P/2021 J3 (ATLAS),e,14.5434,111.1914,126.0314,8.942448,0.0368570,0.45001726,38.9493,05/27.0/2022,2000,g  7.0,4.0
# From MPEC 2022-ED3
C/2021 K1 (ATLAS),e,16.2758,140.9022,184.2793,12.69516,0.0217895,0.80325994,8.4447,05/27.0/2022,2000,g 11.0,4.0
# From MPEC 2022-GA9
C/2021 K2 (MASTER),h,09/09.3778/2021,100.8447,282.2454,343.3479,1.001097,5.467366,2000,8.0,4.0
# From MPEC 2022-K19
C/2021 K3 (Catalina),h,02/02.9095/2022,134.7737,114.4518,182.0216,1.002838,5.229584,2000,10.0,4.0
# From MPEC 2021-W31
P/2021 L2 (Leonard),e,21.0699,266.6569,51.5162,4.050203,0.1209174,0.52142596,37.0686,05/27.0/2022,2000,g 17.0,4.0
# From MPEC 2022-K19
C/2021 L3 (Borisov),h,02/13.5664/2022,78.5801,344.9685,91.5888,1.001782,8.457846,2000,6.0,4.0
# From MPEC 2021-R75
P/2021 L4 (PANSTARRS),e,16.9608,243.2222,234.5476,3.165206,0.1750254,0.11845282,174.4312,05/27.0/2022,2000,g 13.5,4.0
# From MPEC 2021-P47
P/2021 N1 (ZTF),e,11.5047,301.1670,21.2024,2.977376,0.1918464,0.67671068,68.0017,05/27.0/2022,2000,g 19.0,4.0
# From MPEC 2022-GA9
P/2021 N2 (Fuls),e,13.0625,221.7419,177.3645,6.933196,0.0539888,0.45238901,10.5053,05/27.0/2022,2000,g  9.5,4.0
# From MPEC 2021-W31
C/2021 N3 (PANSTARRS),e,26.7450,337.4951,304.7043,159.8046,0.0004879,0.96425742,0.3149,05/27.0/2022,2000,g  8.5,4.0
# From MPEC 2022-A21
C/2021 O1 (Nishimura),e,27.5781,41.6083,74.4443,2560,0.0000076,0.99969273,0.0000,08/13.9309/2021,2000,g 10.5,4.0
# From MPEC 2022-K19
C/2021 O3 (PANSTARRS),h,04/21.0464/2022,56.7941,189.0183,299.9888,1.000109,0.287347,2000,10.5,4.0
# From MPEC 2022-CN4
C/2021 P1 (PANSTARRS),e,51.6364,359.6761,40.4250,3381,0.0000050,0.99870643,0.0000,06/02.1519/2022,2000,g 11.0,4.0
# From MPEC 2022-C56
C/2021 P2 (PANSTARRS),e,150.0541,32.0520,76.5969,4752,0.0000030,0.99893299,0.0000,01/22.1012/2023,2000,g  9.0,4.0
# From MPEC 2021-W31
P/2021 P3 (PANSTARRS),e,27.1617,358.2398,334.1276,4.414755,0.1062537,0.33956016,38.4096,05/27.0/2022,2000,g 14.0,4.0
# From MPEC 2022-K19
C/2021 P4 (ATLAS),e,56.3108,348.0945,175.8213,319.1199,0.0001729,0.99661425,0.0000,07/30.3715/2022,2000,g  9.5,4.0
# From MPEC 2022-GA9
C/2021 Q3 (ATLAS),e,77.7756,307.9037,114.0948,75.03352,0.0015164,0.93063653,0.1833,05/27.0/2022,2000,g  8.0,4.0
# From MPEC 2022-GA9
C/2021 Q4 (Fuls),h,06/09.5270/2023,71.4727,183.3340,146.9368,1.003365,7.565586,2000,6.0,4.0
# From MPEC 2022-C56
P/2021 Q5 (ATLAS),e,10.7345,239.7672,180.9012,3.286041,0.1654606,0.62433272,44.6009,05/27.0/2022,2000,g 15.0,4.0
# From MPEC 2022-C56
C/2021 Q6 (PANSTARRS),e,161.8473,133.5363,140.8490,7899,0.0000014,0.99889699,0.0000,03/22.1703/2024,2000,g  6.0,4.0
# From MPEC 2021-W31
P/2021 R1 (PANSTARRS),e,5.5204,143.3974,220.3473,8.389593,0.0405595,0.41762198,6.5007,05/27.0/2022,2000,g 11.0,4.0
# From MPEC 2021-W31
C/2021 R2 (PANSTARRS),e,134.4697,16.2851,32.3842,1798,0.0000129,0.99593365,0.0000,12/26.2130/2021,2000,g  7.5,4.0
# From MPEC 2021-W31
P/2021 R3 (PANSTARRS),e,19.9265,304.2205,2.8742,3.775437,0.1343548,0.33141747,49.1013,05/27.0/2022,2000,g 16.0,4.0
# From MPEC 2021-W31
P/2021 R4 (Wierzchos),e,21.0400,321.2559,56.6382,5.617813,0.0740207,0.58593887,16.6581,05/27.0/2022,2000,g 16.0,4.0
